[{"OBJECT_NAME":"TIANMU-1 19","OBJECT_ID":"2023-208A","EPOCH":"2026-03-09T22:13:36.801696","MEAN_MOTION":15.2984143,"ECCENTRICITY":0.00039292,"INCLINATION":97.4383,"RA_OF_ASC_NODE":184.9132,"ARG_OF_PERICENTER":316.2611,"MEAN_ANOMALY":43.8317,"EPHEMERIS_TYPE":0,"CLASSIFICATION_TYPE":"U","NORAD_CAT_ID":58660,"ELEMENT_SET_NO":999,"REV_AT_EPOCH":12214,"BSTAR":0.00040995676,"MEAN_MOTION_DOT":0.00011779,"MEAN_MOTION_DDOT":0},{"OBJECT_NAME":"STARLINK-33763","OBJECT_ID":"2025-069V","EPOCH":"2026-03-09T11:14:52.306080","MEAN_MOTION":15.30201351,"ECCENTRICITY":0.00010989,"INCLINATION":53.1597,"RA_OF_ASC_NODE":143.2914,"ARG_OF_PERICENTER":77.8335,"MEAN_ANOMALY":282.2789,"EPHEMERIS_TYPE":0,"CLASSIFICATION_TYPE":"U","NORAD_CAT_ID":63452,"ELEMENT_SET_NO":999,"REV_AT_EPOCH":5337,"BSTAR":0.00084829196,"MEAN_MOTION_DOT":0.0002485,"MEAN_MOTION_DDOT":0}]
